CORVUS BC2              
1 42846U 17042X   18140.30360662  .00000045  00000-0  97755-5 0  9995
2 42846  97.5996  44.1801 0008211 293.8882  66.1476 14.91808211 46219
CORVUS BC1              
1 42847U 17042Y   18140.28312575  .00000315  00000-0  36510-4 0  9994
2 42847  97.5995  44.2055 0007890 293.5258  66.5132 14.91907182 46206
SILU-1 (SILKROAD 1)     
1 42903U 17021F   18140.73665509  .00023228  00000-0  18577-3 0  9992
2 42903  42.7768 134.3507 0010197 105.4835 247.9153 15.70537850 45608
MIRATA                  
1 43015U 17073C   18140.53708591  .00001681  00000-0  13785-3 0  9996
2 43015  97.7032  72.7161 0258638   1.9330 358.2819 14.78071795 27054
ASTERIA                 
1 43020U 98067NH  18140.45239164  .00005151  00000-0  72018-4 0  9991
2 43020  51.6404 153.6098 0003355  63.5612 296.5725 15.58727000 28160
DELLINGR (RBLE)         
1 43021U 98067NJ  18140.60221255  .00005049  00000-0  74770-4 0  9994
2 43021  51.6381 153.8437 0003083  58.9704 301.1590 15.57198287 28174
TECHEDSAT 6             
1 43026U 98067NK  18135.04917276  .24108771  12366-4  25107-2 0  9998
2 43026  51.6059 164.5237 0004943 311.1143  50.3672 16.36895032 27437
OSIRIS-3U               
1 43027U 98067NL  18140.47795061  .00019915  00000-0  22069-3 0  9996
2 43027  51.6367 150.7558 0005037  39.7776 320.3587 15.62956225 28080
AEROCUBE 7B             
1 43042U 17071F   18140.51883857  .00002094  00000-0  64119-4 0  9998
2 43042  51.6379 176.2915 0005095 159.0375 201.0819 15.38699596 25342
AEROCUBE 7C             
1 43043U 17071G   18140.58377493  .00002090  00000-0  64040-4 0  9999
2 43043  51.6382 175.9784 0005105 161.3526 198.7646 15.38696336 25320
CHEFSAT                 
1 43044U 17071H   18140.54263011  .00002038  00000-0  61172-4 0  9991
2 43044  51.6387 175.7176 0004945 161.1172 198.9996 15.39484485 25326
ASGARDIA 1              
1 43049U 17071N   18140.56695680  .00002336  00000-0  70032-4 0  9995
2 43049  51.6382 175.8714 0002410 175.6181 184.4824 15.38833757 25329
ISARA                   
1 43050U 17071P   18140.54225892  .00002549  00000-0  74259-4 0  9990
2 43050  51.6379 175.7145 0002224 172.0366 188.0654 15.39354253 25324
FAUNA                   
1 43052U 17071R   18140.49282255  .00002213  00000-0  66614-4 0  9996
2 43052  51.6382 176.1330 0002379 170.6813 189.4215 15.38956027 25305
CORVUS BC3              
1 43118U 18004H   18140.59887487  .00000735  00000-0  35108-4 0  9996
2 43118  97.5351 203.1315 0010527 182.6737 177.4444 15.22199841 19512
MICROMAS-2A             
1 43131U 18004W   18140.23997507  .00001720  00000-0  76840-4 0  9990
2 43131  97.5360 202.8513 0009681 186.2229 173.8888 15.22699302 19461
GOMX4-B                 
1 43196U 18015E   18140.55852956  .00000379  00000-0  18761-4 0  9993
2 43196  97.3424 270.0676 0017738 253.4955 106.4336 15.23535668 16320
GOMX4-A                 
1 43197U 18015F   18140.70864284  .00000444  00000-0  21414-4 0  9990
2 43197  97.3428 270.2159 0017742 253.9409 213.1522 15.23630179 16356
UBAKUSAT                
1 43466U 98067NP  18140.44166762  .00009905  00000-0  15141-3 0  9991
2 43466  51.6402 156.9641 0001287  48.3081  93.7897 15.55074101  1381
1KUNS-PF                
1 43467U 98067NQ  18140.55848560  .00007537  00000-0  11674-3 0  9993
2 43467  51.6397 156.3740 0003433  40.0642  38.6380 15.55121461  1406
IRAZU                   
1 43468U 98067NR  18140.28752677  .00010998  00000-0  16699-3 0  9994
2 43468  51.6399 157.7297 0001194  35.2916 324.8229 15.55130065101349
